start=new Date('2023-03-06T00:00:00.000Z').valueOf();
sats=[{"OBJECT_ID":"2022-049V","FILE":"3852256","APOAPSIS":"540.443","REF_FRAME":"TEME","EPOCH":"2023-03-05T22:12:22.631616","TLE_LINE1":"1 52470U 22049V   23064.92526194  .00017833  00000-0  11355-2 0  9997","ECCENTRICITY":"0.00010430","DECAY_DATE":null,"SEMIMAJOR_AXIS":"6917.857","MEAN_ELEMENT_THEORY":"SGP4","MEAN_MOTION_DOT":"0.00017833","MEAN_MOTION":"15.08847666","COUNTRY_CODE":"US","LAUNCH_DATE":"2022-05-06","RA_OF_ASC_NODE":"316.1605","OBJECT_NAME":"STARLINK-3859","GP_ID":"227582335","INCLINATION":"53.2156","PERIAPSIS":"539.000","CENTER_NAME":"EARTH","NORAD_CAT_ID":"52470","CLASSIFICATION_TYPE":"U","SITE":"AFETR","MEAN_MOTION_DDOT":"0.0000000000000","RCS_SIZE":"LARGE","MEAN_ANOMALY":"246.4199","EPHEMERIS_TYPE":"0","PERIOD":"95.437","REV_AT_EPOCH":"4622","ELEMENT_SET_NO":"999","TLE_LINE2":"2 52470  53.2156 316.1605 0001043 113.6903 246.4199 15.08847666 46225","OBJECT_TYPE":"PAYLOAD","TIME_SYSTEM":"UTC","ARG_OF_PERICENTER":"113.6903","BSTAR":"0.00113550000000"},{"SEMIMAJOR_AXIS":"6917.857","MEAN_ELEMENT_THEORY":"SGP4","DECAY_DATE":null,"MEAN_MOTION_DOT":"0.00012561","EPOCH":"2023-03-05T22:29:38.584032","REF_FRAME":"TEME","APOAPSIS":"540.560","FILE":"3852256","OBJECT_ID":"2022-049W","TLE_LINE1":"1 52471U 22049W   23064.93725213  .00012561  00000-0  80570-3 0  9991","ECCENTRICITY":"0.00012100","PERIAPSIS":"538.885","INCLINATION":"53.2160","GP_ID":"227583558","NORAD_CAT_ID":"52471","CENTER_NAME":"EARTH","RA_OF_ASC_NODE":"316.1134","LAUNCH_DATE":"2022-05-06","MEAN_MOTION":"15.08847501","COUNTRY_CODE":"US","OBJECT_NAME":"STARLINK-3862","RCS_SIZE":"LARGE","EPHEMERIS_TYPE":"0","PERIOD":"95.437","MEAN_ANOMALY":"281.1476","SITE":"AFETR","CLASSIFICATION_TYPE":"U","MEAN_MOTION_DDOT":"0.0000000000000","BSTAR":"0.00080570000000","TIME_SYSTEM":"UTC","TLE_LINE2":"2 52471  53.2160 316.1134 0001210  78.9652 281.1476 15.08847501 46220","OBJECT_TYPE":"PAYLOAD","ARG_OF_PERICENTER":"78.9652","ELEMENT_SET_NO":"999","REV_AT_EPOCH":"4622"},{"CLASSIFICATION_TYPE":"U","SITE":"AFETR","MEAN_MOTION_DDOT":"0.0000000000000","RCS_SIZE":"LARGE","EPHEMERIS_TYPE":"0","PERIOD":"95.438","MEAN_ANOMALY":"262.7807","ELEMENT_SET_NO":"999","ARG_OF_PERICENTER":"97.3326","TLE_LINE2":"2 52472  53.2148 316.1747 0001237  97.3326 262.7807 15.08829417 46228","OBJECT_TYPE":"PAYLOAD","TIME_SYSTEM":"UTC","REV_AT_EPOCH":"4622","BSTAR":"0.00010115000000","APOAPSIS":"540.633","EPOCH":"2023-03-05T22:07:04.288224","REF_FRAME":"TEME","OBJECT_ID":"2022-049X","FILE":"3852256","TLE_LINE1":"1 52472U 22049X   23064.92157741  .00001322  00000-0  10115-3 0  9997","ECCENTRICITY":"0.00012370","MEAN_ELEMENT_THEORY":"SGP4","SEMIMAJOR_AXIS":"6917.913","DECAY_DATE":null,"MEAN_MOTION_DOT":"0.00001322","RA_OF_ASC_NODE":"316.1747","MEAN_MOTION":"15.08829417","COUNTRY_CODE":"US","LAUNCH_DATE":"2022-05-06","OBJECT_NAME":"STARLINK-3881","PERIAPSIS":"538.922","GP_ID":"227583318","INCLINATION":"53.2148","NORAD_CAT_ID":"52472","CENTER_NAME":"EARTH"},{"RCS_SIZE":"LARGE","MEAN_ANOMALY":"256.8769","PERIOD":"95.437","EPHEMERIS_TYPE":"0","CLASSIFICATION_TYPE":"U","SITE":"AFETR","MEAN_MOTION_DDOT":"0.0000000000000","BSTAR":"0.00109440000000","REV_AT_EPOCH":"4622","ELEMENT_SET_NO":"999","OBJECT_TYPE":"PAYLOAD","TLE_LINE2":"2 52473  53.2154 316.1436 0000989 103.2333 256.8769 15.08846886 46229","ARG_OF_PERICENTER":"103.2333","TIME_SYSTEM":"UTC","DECAY_DATE":null,"MEAN_ELEMENT_THEORY":"SGP4","SEMIMAJOR_AXIS":"6917.859","MEAN_MOTION_DOT":"0.00017176","OBJECT_ID":"2022-049Y","FILE":"3852256","APOAPSIS":"540.409","EPOCH":"2023-03-05T22:17:40.555968","REF_FRAME":"TEME","TLE_LINE1":"1 52473U 22049Y   23064.92894162  .00017176  00000-0  10944-2 0  9996","ECCENTRICITY":"0.00009890","GP_ID":"227582563","INCLINATION":"53.2154","PERIAPSIS":"539.040","CENTER_NAME":"EARTH","NORAD_CAT_ID":"52473","MEAN_MOTION":"15.08846886","COUNTRY_CODE":"US","LAUNCH_DATE":"2022-05-06","RA_OF_ASC_NODE":"316.1436","OBJECT_NAME":"STARLINK-3879"},{"RA_OF_ASC_NODE":"306.0875","LAUNCH_DATE":"2022-05-06","COUNTRY_CODE":"US","MEAN_MOTION":"15.08846446","OBJECT_NAME":"STARLINK-3855","PERIAPSIS":"538.893","INCLINATION":"53.2171","GP_ID":"227582813","NORAD_CAT_ID":"52474","CENTER_NAME":"EARTH","REF_FRAME":"TEME","EPOCH":"2023-03-05T22:34:54.083136","APOAPSIS":"540.558","FILE":"3852256","OBJECT_ID":"2022-049Z","ECCENTRICITY":"0.00012030","TLE_LINE1":"1 52474U 22049Z   23064.94090374  .00039461  00000-0  24832-2 0  9994","MEAN_ELEMENT_THEORY":"SGP4","SEMIMAJOR_AXIS":"6917.861","DECAY_DATE":null,"MEAN_MOTION_DOT":"0.00039461","TLE_LINE2":"2 52474  53.2171 306.0875 0001203  57.1100 303.0007 15.08846446 46360","OBJECT_TYPE":"PAYLOAD","TIME_SYSTEM":"UTC","ARG_OF_PERICENTER":"57.1100","ELEMENT_SET_NO":"999","REV_AT_EPOCH":"4636","BSTAR":"0.00248320000000","SITE":"AFETR","CLASSIFICATION_TYPE":"U","MEAN_MOTION_DDOT":"0.0000000000000","RCS_SIZE":"LARGE","EPHEMERIS_TYPE":"0","PERIOD":"95.437","MEAN_ANOMALY":"303.0007"},{"OBJECT_NAME":"STARLINK-3882","COUNTRY_CODE":"US","MEAN_MOTION":"15.08850900","LAUNCH_DATE":"2022-05-06","RA_OF_ASC_NODE":"316.1708","CENTER_NAME":"EARTH","NORAD_CAT_ID":"52475","GP_ID":"227583081","INCLINATION":"53.2161","PERIAPSIS":"538.875","ECCENTRICITY":"0.00012100","TLE_LINE1":"1 52475U 22049AA  23064.92253771  .00018701  00000-0  11896-2 0  9995","OBJECT_ID":"2022-049AA","FILE":"3852256","APOAPSIS":"540.549","EPOCH":"2023-03-05T22:08:27.258144","REF_FRAME":"TEME","MEAN_MOTION_DOT":"0.00018701","DECAY_DATE":null,"MEAN_ELEMENT_THEORY":"SGP4","SEMIMAJOR_AXIS":"6917.847","REV_AT_EPOCH":"4622","ELEMENT_SET_NO":"999","OBJECT_TYPE":"PAYLOAD","TLE_LINE2":"2 52475  53.2161 316.1708 0001210  58.0093 302.1016 15.08850900 46221","ARG_OF_PERICENTER":"58.0093","TIME_SYSTEM":"UTC","BSTAR":"0.00118960000000","MEAN_MOTION_DDOT":"0.0000000000000","CLASSIFICATION_TYPE":"U","SITE":"AFETR","MEAN_ANOMALY":"302.1016","PERIOD":"95.437","EPHEMERIS_TYPE":"0","RCS_SIZE":"LARGE"},{"RCS_SIZE":"LARGE","PERIOD":"95.434","EPHEMERIS_TYPE":"0","MEAN_ANOMALY":"286.0316","SITE":"AFETR","CLASSIFICATION_TYPE":"U","MEAN_MOTION_DDOT":"0.0000000000000","BSTAR":"0.00262220000000","TLE_LINE2":"2 52476  53.2163 306.1095 0001130  74.0800 286.0316 15.08894523 47602","OBJECT_TYPE":"PAYLOAD","TIME_SYSTEM":"UTC","ARG_OF_PERICENTER":"74.0800","ELEMENT_SET_NO":"999","REV_AT_EPOCH":"4760","MEAN_ELEMENT_THEORY":"SGP4","SEMIMAJOR_AXIS":"6917.714","DECAY_DATE":null,"MEAN_MOTION_DOT":"0.00041754","EPOCH":"2023-03-05T22:30:59.431968","REF_FRAME":"TEME","APOAPSIS":"540.360","FILE":"3852256","OBJECT_ID":"2022-049AB","TLE_LINE1":"1 52476U 22049AB  23064.93818787  .00041754  00000-0  26222-2 0  9994","ECCENTRICITY":"0.00011300","PERIAPSIS":"538.797","INCLINATION":"53.2163","GP_ID":"227583795","NORAD_CAT_ID":"52476","CENTER_NAME":"EARTH","RA_OF_ASC_NODE":"306.1095","LAUNCH_DATE":"2022-05-06","COUNTRY_CODE":"US","MEAN_MOTION":"15.08894523","OBJECT_NAME":"STARLINK-3835"},{"CLASSIFICATION_TYPE":"U","SITE":"AFETR","MEAN_MOTION_DDOT":"0.0000000000000","RCS_SIZE":"LARGE","PERIOD":"95.436","EPHEMERIS_TYPE":"0","MEAN_ANOMALY":"294.3581","ELEMENT_SET_NO":"999","OBJECT_TYPE":"PAYLOAD","TLE_LINE2":"2 52477  53.2159 306.0720 0001005  65.7516 294.3581 15.08865523 47608","TIME_SYSTEM":"UTC","ARG_OF_PERICENTER":"65.7516","REV_AT_EPOCH":"4760","BSTAR":"0.00208020000000","APOAPSIS":"540.363","EPOCH":"2023-03-05T22:40:11.628192","REF_FRAME":"TEME","OBJECT_ID":"2022-049AC","FILE":"3852256","ECCENTRICITY":"0.00010050","TLE_LINE1":"1 52477U 22049AC  23064.94457903  .00032997  00000-0  20802-2 0  9992","MEAN_ELEMENT_THEORY":"SGP4","SEMIMAJOR_AXIS":"6917.802","DECAY_DATE":null,"MEAN_MOTION_DOT":"0.00032997","RA_OF_ASC_NODE":"306.0720","MEAN_MOTION":"15.08865523","COUNTRY_CODE":"US","LAUNCH_DATE":"2022-05-06","OBJECT_NAME":"STARLINK-3860","PERIAPSIS":"538.972","GP_ID":"227582086","INCLINATION":"53.2159","NORAD_CAT_ID":"52477","CENTER_NAME":"EARTH"},{"TLE_LINE2":"2 52478  53.2183 316.2033 0001689  47.1437 312.9697 15.08835500 47461","OBJECT_TYPE":"PAYLOAD","ARG_OF_PERICENTER":"47.1437","TIME_SYSTEM":"UTC","ELEMENT_SET_NO":"999","REV_AT_EPOCH":"4746","BSTAR":"0.00070398000000","SITE":"AFETR","CLASSIFICATION_TYPE":"U","MEAN_MOTION_DDOT":"0.0000000000000","RCS_SIZE":"LARGE","EPHEMERIS_TYPE":"0","PERIOD":"95.438","MEAN_ANOMALY":"312.9697","RA_OF_ASC_NODE":"316.2033","LAUNCH_DATE":"2022-05-06","COUNTRY_CODE":"US","MEAN_MOTION":"15.08835500","OBJECT_NAME":"STARLINK-3825","PERIAPSIS":"538.591","INCLINATION":"53.2183","GP_ID":"227582336","NORAD_CAT_ID":"52478","CENTER_NAME":"EARTH","EPOCH":"2023-03-05T21:56:28.846464","REF_FRAME":"TEME","APOAPSIS":"540.928","FILE":"3852256","OBJECT_ID":"2022-049AD","TLE_LINE1":"1 52478U 22049AD  23064.91422276  .00010932  00000-0  70398-3 0  9996","ECCENTRICITY":"0.00016890","SEMIMAJOR_AXIS":"6917.894","MEAN_ELEMENT_THEORY":"SGP4","DECAY_DATE":null,"MEAN_MOTION_DOT":"0.00010932"},{"DECAY_DATE":null,"MEAN_ELEMENT_THEORY":"SGP4","SEMIMAJOR_AXIS":"6917.903","MEAN_MOTION_DOT":"-0.00004048","OBJECT_ID":"2022-049AE","FILE":"3852256","APOAPSIS":"540.483","EPOCH":"2023-03-05T22:19:00.045696","REF_FRAME":"TEME","ECCENTRICITY":"0.00010340","TLE_LINE1":"1 52479U 22049AE  23064.92986164 -.00004048  00000-0 -23642-3 0  9992","GP_ID":"227583559","INCLINATION":"53.2165","PERIAPSIS":"539.052","CENTER_NAME":"EARTH","NORAD_CAT_ID":"52479","MEAN_MOTION":"15.08832679","COUNTRY_CODE":"US","LAUNCH_DATE":"2022-05-06","RA_OF_ASC_NODE":"306.1357","OBJECT_NAME":"STARLINK-3878","RCS_SIZE":"LARGE","MEAN_ANOMALY":"277.5927","PERIOD":"95.438","EPHEMERIS_TYPE":"0","CLASSIFICATION_TYPE":"U","SITE":"AFETR","MEAN_MOTION_DDOT":"0.0000000000000","BSTAR":"-0.00023642000000","REV_AT_EPOCH":"4760","ELEMENT_SET_NO":"999","OBJECT_TYPE":"PAYLOAD","TLE_LINE2":"2 52479  53.2165 306.1357 0001034  82.5183 277.5927 15.08832679 47606","TIME_SYSTEM":"UTC","ARG_OF_PERICENTER":"82.5183"}];
